#aV2022  1  6  0  0  0.00000000     288 DD+AD WGS84 FIT  NGA
## 2191 345600.00000000   300.00000000 59585 0.0000000000000
+   32     1  2  3  4  5  6  7  8  9 10 11 12 13 14 15 16 17
+         18 19 20 21 22 23 24 25 26 27 28 29 30 31 32  0  0
+          0  0  0  0  0  0  0  0  0  0  0  0  0  0  0  0  0
+          0  0  0  0  0  0  0  0  0  0  0  0  0  0  0  0  0
+          0  0  0  0  0  0  0  0  0  0  0  0  0  0  0  0  0
++         2  2  2  2  2  2  2  2  2  2  2  2  2  2  2  2  2
++         2  2  2  2  2  2  2  2  2  2  2  2  2  2  2  0  0
++         0  0  0  0  0  0  0  0  0  0  0  0  0  0  0  0  0
++         0  0  0  0  0  0  0  0  0  0  0  0  0  0  0  0  0
++         0  0  0  0  0  0  0  0  0  0  0  0  0  0  0  0  0
%c cc cc ccc ccc cccc cccc cccc cccc ccccc ccccc ccccc ccccc
%c cc cc ccc ccc cccc cccc cccc cccc ccccc ccccc ccccc ccccc
%f  0.0000000  0.000000000  0.00000000000  0.000000000000000
%f  0.0000000  0.000000000  0.00000000000  0.000000000000000
%i    0    0    0    0      0      0      0      0         0
%i    0    0    0    0      0      0      0      0         0
/*      NGA, ST. LOUIS,MO.                                  
/*   EPHEMERIS COMPUTED FROM 2 DAYS OF DATA                 
/*   EPOCHA v7 SMOOTHER                                     
/*   G2139 IERS2010 SATIGS SATAPC                           
*  2022  1  6  6 20  0.00000000
P  1  18898.691845  13799.446506 -13163.390476    464.601716                    
V  1 -15911.487776  -2712.040331 -25909.757414     -0.099166                    
P  2   3003.229326 -15152.613060  22273.993518   -647.877700                    
V  2  26341.959512   4272.392155   -558.334161     -0.010359                    
P  3  12914.193180  21245.769214   9385.475605    -67.535208                    
V  3   1316.154804  12138.642041 -28870.188208     -0.142805                    
P  4  10204.199568  11294.474508  21765.981991   -196.189484                    
V  4 -19798.012951  19281.253614   -800.842006      0.016093                    
P  5  -4683.003552 -25483.299954   5303.988992    -66.933195                    
V  5   5006.430285   5667.801536  30856.241616     -0.013016                    
P  6  18939.424772  -7143.931321  17301.033796    162.914702                    
V  6  20832.425163   6366.289654 -20192.842042      0.107160                    
P  7  26176.428141   5704.291317  -1094.391013    298.948934                    
V  7   1107.069008   3088.008898  31168.170594      0.038639                    
P  8    405.204321  18738.048702 -18699.289451    -50.996714                    
V  8 -17225.538655  16523.847174  16531.523702     -0.015511                    
P  9  18403.374017    -36.938092  19088.711140   -358.726518                    
V  9 -15443.784569  18952.030180  14836.884165      0.010199                    
P 10 -13630.408790   6254.211457 -21770.061393   -286.553625                    
V 10  -8281.449208 -26697.827591  -2756.957004     -0.094311                    
P 11   5485.778989 -14204.848206  21758.507165    -16.911043                    
V 11  26410.542389   8132.227738  -1363.648830     -0.351885                    
P 12 -10164.874665 -23451.372517   7215.451621   -151.664900                    
V 12    224.659021  -9737.125999 -30111.577501     -0.056262                    
P 13   8546.810295 -20157.341421 -15078.753453    240.915920                    
V 13  15965.812583 -10336.270513  23255.988356      0.060020                    
P 14  14360.626060  -5667.096808 -21612.457540    -66.573619                    
V 14   6921.916639  26575.834547  -2430.374047     -0.055887                    
P 15  -3582.140276 -18712.880298 -18783.995190    -93.650750                    
V 15  15371.712497 -17540.019488  15189.866267      0.028583                    
P 16   -681.899709  24952.172033   8092.003175   -451.545222                    
V 16  -4787.009622 -10010.477338  29979.179386     -0.055833                    
P 17  21754.296563 -12155.752638  -8806.282360    557.569672                    
V 17  -7200.640080   9538.421190 -29454.612568      0.052077                    
P 18 -25998.494838  -5192.829665  -2347.050234    266.167209                    
V 18  -2249.269736  -3100.762495  31710.949965     -0.071302                    
P 19  20811.473847 -16294.401464  -1553.250826    101.879495                    
V 19    271.388596   2887.626821 -32191.169301      0.050010                    
P 20   1496.358909 -22134.037000  14783.101345    517.301670                    
V 20  10064.443816  15971.787050  22624.104632     -0.001682                    
P 21  11348.907978  14893.399221 -18386.129840    155.495553                    
V 21 -24473.338206  -2588.345620 -16005.903736      0.008627                    
P 22  10694.686203  24435.241415    705.577497   -424.084674                    
V 22  -2820.643064   1918.014955 -31091.459910      0.089121                    
P 23 -16465.875591  -6294.045338 -19910.789119     14.066776                    
V 23  -6782.519367 -24293.800348  13207.805016     -0.039205                    
P 24 -15667.909578 -14679.457658 -16182.125810    276.972117                    
V 24  20010.166240   1159.946551 -20388.119046      0.004842                    
P 25 -15863.348129 -14073.583635  15888.821060    266.759506                    
V 25  -4111.851222 -20250.443080 -21390.298175      0.056066                    
P 26  -8167.368147  17198.735982  18319.580233    171.829956                    
V 26  -9682.786463 -21608.506571  16209.032949      0.034640                    
P 27  -9614.968057  21684.575008 -11725.070274     51.512109                    
V 27 -11783.609528   9108.297075  27316.112756      0.238688                    
P 28  10674.613456 -14223.988265 -19273.588655    427.954132                    
V 28   6022.779279  24828.869457 -14376.802836     -0.078940                    
P 29 -15951.010675  -4264.970366  20777.474797   -463.685777                    
V 29  19100.665582 -18238.215902  10842.785372     -0.049840                    
P 30  24398.588932  -1642.181492 -10588.472516   -504.752535                    
V 30  12309.832237   6312.928066  26970.623388     -0.026897                    
P 31 -17490.658889   8599.097965  18129.063907   -158.601477                    
V 31 -21959.800206  -7348.882544 -17119.426624     -0.018228                    
P 32 -20413.312392  15739.178582  -5863.170816    -46.123798                    
V 32   3050.950940  -7615.572070 -30623.875917     -0.058920                    
EOF
